{"type":"FeatureCollection","features":[{"type":"Feature","geometry":{"type":"Point","coordinates":[100.6762,13.58541]},"properties":{"case_name":"point_1","nbr00":0.537059,"nbr01":0.592789,"nbr02":0.648892,"nbr03":0.556692,"nbr04":0.621188,"nbr05":0.6629,"nbr06":0.677389,"nbr07":0.549236,"nbr08":0.623391,"nbr09":0.620407,"nbr10":0.614241,"nbr11":0.621052,"nbr12":0.392667,"nbr13":0.09696,"nbr14":0.205603,"nbr15":0.281534,"nbr16":0.293557,"nbr17":0.473897,"nbr18":0.477724,"nbr19":0.478817,"nbr20":0.420631,"nbr21":0.465979,"nbr22":0.443021,"nbr23":0.534191,"nbr24":0.33768,"nbr25":0.354085,"ndv00":0.469523,"ndv01":0.553911,"ndv02":0.543625,"ndv03":0.449481,"ndv04":0.444136,"ndv05":0.478376,"ndv06":0.443506,"ndv07":0.267684,"ndv08":0.486931,"ndv09":0.455989,"ndv10":0.517583,"ndv11":0.337675,"ndv12":0.246814,"ndv13":0.181718,"ndv14":0.288978,"ndv15":0.364812,"ndv16":0.413275,"ndv17":0.547112,"ndv18":0.597882,"ndv19":0.539154,"ndv20":0.50302,"ndv21":0.566682,"ndv22":0.543486,"ndv23":0.623781,"ndv24":0.430953,"ndv25":0.496696,"sar15":-15.134723,"sar16":-14.608653,"sar17":-13.486668,"sar18":-14.153566,"sar19":-14.729489,"sar20":-13.979795,"sar21":-14.037503,"sar22":-13.706552,"sar23":-13.417931,"sar24":-16.81017,"sar25":-14.684477,"duration":25.0,"dw_crop":0.24,"dw_tree":0.36,"lt_preval":0.576714,"mag":0.163882,"nbr_dsnr":9.509995,"nbr_dur":2.0,"nbr_mag":502.092133,"nbr_mag5":0.0,"nbr_post":123.768364,"nbr_prev":625.860474,"nbr_prv5":0.0,"nbr_rate":251.046066,"nbr_rat5":0.0,"nbr_yod":2013.0,"ndvi_rc5":0.535172,"ndvi_std":0.104985,"rmse":0.158403,"sar_dprv":0.995265,"sar_vh":-14.449053,"sar_vhrc":-14.515456,"seas_amp":0.21275,"slope":0.030009,"tex_ent":4.348928,"tex_hom5":0.003203,"fit00":0.595182,"fit01":0.586622,"fit02":0.578061,"fit03":0.5695,"fit04":0.56094,"fit05":0.552379,"fit06":0.543819,"fit07":0.535258,"fit08":0.526697,"fit09":0.518137,"fit10":0.509576,"fit11":0.501015,"fit12":0.492455,"fit13":0.483894,"fit14":0.475334,"fit15":0.466773,"fit16":0.458212,"fit17":0.449652,"fit18":0.441091,"fit19":0.43253,"fit20":0.42397,"fit21":0.415409,"fit22":0.406848,"fit23":0.398288,"fit24":0.389727,"fit25":0.381167,"amp_code":"03","amphoe_e":"Bang Phi","prov_code":11,"prov_nam_e":"Samut Prakarn","region":"C"}},{"type":"Feature","geometry":{"type":"Point","coordinates":[100.8353,13.8806]},"properties":{"case_name":"point_2","nbr00":0.391032,"nbr01":0.11821,"nbr02":0.248539,"nbr03":0.068264,"nbr04":0.06192,"nbr05":0.243148,"nbr06":0.320844,"nbr07":0.14424,"nbr08":0.1608,"nbr09":0.123873,"nbr10":0.429009,"nbr11":0.516219,"nbr12":0.431346,"nbr13":0.349132,"nbr14":0.547727,"nbr15":0.608081,"nbr16":0.303299,"nbr17":0.426735,"nbr18":0.291165,"nbr19":0.38369,"nbr20":0.500264,"nbr21":0.398084,"nbr22":0.194372,"nbr23":0.466638,"nbr24":0.379584,"nbr25":0.366012,"ndv00":0.462243,"ndv01":0.408177,"ndv02":0.391703,"ndv03":0.378301,"ndv04":0.332357,"ndv05":0.508927,"ndv06":0.515815,"ndv07":0.387453,"ndv08":0.396094,"ndv09":0.391716,"ndv10":0.554037,"ndv11":0.542175,"ndv12":0.491795,"ndv13":0.522315,"ndv14":0.631528,"ndv15":0.673523,"ndv16":0.51747,"ndv17":0.592082,"ndv18":0.503184,"ndv19":0.534029,"ndv20":0.596331,"ndv21":0.558959,"ndv22":0.427294,"ndv23":0.556605,"ndv24":0.55855,"ndv25":0.554041,"sar15":-15.245584,"sar16":-15.808933,"sar17":-14.146096,"sar18":-16.242535,"sar19":-17.624346,"sar20":-14.845042,"sar21":-16.26079,"sar22":-18.028877,"sar23":-16.336126,"sar24":-17.439598,"sar25":-15.485797,"duration":15.0,"dw_crop":0.208,"dw_tree":0.416,"lt_preval":0.550605,"mag":0.09358,"nbr_dsnr":0.0,"nbr_dur":0.0,"nbr_mag":0.0,"nbr_mag5":0.0,"nbr_post":0.0,"nbr_prev":0.0,"nbr_prv5":0.0,"nbr_rate":0.0,"nbr_rat5":0.0,"nbr_yod":1.0,"ndvi_rc5":0.55693,"ndvi_std":0.099741,"rmse":0.158227,"sar_dprv":0.87015,"sar_vh":-16.292381,"sar_vhrc":-16.284252,"seas_amp":0.285101,"slope":0.133643,"tex_ent":4.349616,"tex_hom5":0.000465,"fit00":null,"fit01":null,"fit02":null,"fit03":null,"fit04":null,"fit05":null,"fit06":null,"fit07":null,"fit08":null,"fit09":null,"fit10":null,"fit11":null,"fit12":null,"fit13":null,"fit14":null,"fit15":null,"fit16":null,"fit17":null,"fit18":null,"fit19":null,"fit20":null,"fit21":null,"fit22":null,"fit23":null,"fit24":null,"fit25":null,"amp_code":"03","amphoe_e":"Nong Chok","prov_code":10,"prov_nam_e":"Bangkok","region":"C"}},{"type":"Feature","geometry":{"type":"Point","coordinates":[100.17918,13.54515]},"properties":{"case_name":"point_3","nbr00":0.619596,"nbr01":0.652186,"nbr02":0.544759,"nbr03":0.643478,"nbr04":0.600496,"nbr05":0.814829,"nbr06":0.710397,"nbr07":0.613431,"nbr08":0.617853,"nbr09":0.311848,"nbr10":0.678024,"nbr11":0.583885,"nbr12":0.616598,"nbr13":0.668877,"nbr14":0.608172,"nbr15":0.63871,"nbr16":0.37211,"nbr17":0.284957,"nbr18":0.423768,"nbr19":0.343256,"nbr20":0.442669,"nbr21":0.503695,"nbr22":0.478001,"nbr23":0.462581,"nbr24":0.432727,"nbr25":0.563074,"ndv00":0.503515,"ndv01":0.301686,"ndv02":0.324743,"ndv03":0.308413,"ndv04":0.404055,"ndv05":0.183685,"ndv06":0.249149,"ndv07":0.351263,"ndv08":0.355364,"ndv09":0.489049,"ndv10":0.18431,"ndv11":0.345539,"ndv12":0.302422,"ndv13":0.11828,"ndv14":0.394667,"ndv15":0.551795,"ndv16":0.541503,"ndv17":0.454189,"ndv18":0.556566,"ndv19":0.498823,"ndv20":0.598041,"ndv21":0.679294,"ndv22":0.576552,"ndv23":0.5961,"ndv24":0.581116,"ndv25":0.700099,"sar15":-17.555997,"sar16":-15.309896,"sar17":-14.344448,"sar18":-13.49488,"sar19":-12.318496,"sar20":-13.717671,"sar21":-13.784391,"sar22":-13.598562,"sar23":-13.945106,"sar24":-13.594412,"sar25":-13.813508,"duration":25.0,"dw_crop":0.096346,"dw_tree":0.166113,"lt_preval":0.460409,"mag":0.184186,"nbr_dsnr":1.931334,"nbr_dur":25.0,"nbr_mag":193.350342,"nbr_mag5":0.0,"nbr_post":461.533813,"nbr_prev":654.884155,"nbr_prv5":0.0,"nbr_rate":7.734014,"nbr_rat5":0.0,"nbr_yod":2001.0,"ndvi_rc5":0.621506,"ndvi_std":0.147492,"rmse":0.208067,"sar_dprv":0.964103,"sar_vh":-14.200994,"sar_vhrc":-13.817958,"seas_amp":0.242234,"slope":0.219751,"tex_ent":4.273974,"tex_hom5":0.000284,"fit00":null,"fit01":null,"fit02":null,"fit03":null,"fit04":null,"fit05":null,"fit06":null,"fit07":null,"fit08":null,"fit09":null,"fit10":null,"fit11":null,"fit12":null,"fit13":null,"fit14":null,"fit15":null,"fit16":null,"fit17":null,"fit18":null,"fit19":null,"fit20":null,"fit21":null,"fit22":null,"fit23":null,"fit24":null,"fit25":null,"amp_code":"01","amphoe_e":"Mueang Samut Sakhon","prov_code":74,"prov_nam_e":"Samut Sakhon","region":"C"}},{"type":"Feature","geometry":{"type":"Point","coordinates":[100.58093,14.44841]},"properties":{"case_name":"point_4","nbr00":0.276021,"nbr01":0.143006,"nbr02":0.039496,"nbr03":0.275033,"nbr04":0.072576,"nbr05":-0.033028,"nbr06":0.623013,"nbr07":0.00589,"nbr08":0.006424,"nbr09":0.005141,"nbr10":0.184917,"nbr11":0.364653,"nbr12":0.037639,"nbr13":-0.026134,"nbr14":0.317584,"nbr15":0.262275,"nbr16":0.289163,"nbr17":0.451218,"nbr18":0.298593,"nbr19":-0.018556,"nbr20":0.114911,"nbr21":0.297992,"nbr22":0.333949,"nbr23":0.478821,"nbr24":0.39757,"nbr25":0.429527,"ndv00":0.424432,"ndv01":0.255455,"ndv02":0.251868,"ndv03":0.416136,"ndv04":0.257044,"ndv05":0.288056,"ndv06":0.248879,"ndv07":0.278533,"ndv08":0.270411,"ndv09":0.306324,"ndv10":0.344467,"ndv11":0.128849,"ndv12":0.383904,"ndv13":0.282359,"ndv14":0.464727,"ndv15":0.459765,"ndv16":0.468436,"ndv17":0.555283,"ndv18":0.524852,"ndv19":0.314619,"ndv20":0.332769,"ndv21":0.47137,"ndv22":0.516804,"ndv23":0.597271,"ndv24":0.570298,"ndv25":0.581254,"sar15":-14.357231,"sar16":-14.466702,"sar17":-14.603286,"sar18":-14.52161,"sar19":-20.127211,"sar20":-17.275098,"sar21":-16.974852,"sar22":-14.393965,"sar23":-14.195026,"sar24":-14.572139,"sar25":-14.037235,"duration":25.0,"dw_crop":0.068966,"dw_tree":0.119122,"lt_preval":0.48577,"mag":0.282538,"nbr_dsnr":2.062745,"nbr_dur":3.0,"nbr_mag":381.772858,"nbr_mag5":0.0,"nbr_post":61.44062,"nbr_prev":443.21347,"nbr_prv5":0.0,"nbr_rate":127.257614,"nbr_rat5":0.0,"nbr_yod":2001.0,"ndvi_rc5":0.49005,"ndvi_std":0.122936,"rmse":0.186301,"sar_dprv":0.901652,"sar_vh":-15.478563,"sar_vhrc":-15.83086,"seas_amp":0.316522,"slope":0.115808,"tex_ent":4.34549,"tex_hom5":0.004288,"fit00":0.05564,"fit01":0.065538,"fit02":0.075437,"fit03":0.085336,"fit04":0.095235,"fit05":0.105133,"fit06":0.115032,"fit07":0.124931,"fit08":0.134829,"fit09":0.144728,"fit10":0.154627,"fit11":0.164525,"fit12":0.174424,"fit13":0.184323,"fit14":0.194221,"fit15":0.20412,"fit16":0.214019,"fit17":0.223918,"fit18":0.233816,"fit19":0.243715,"fit20":0.253614,"fit21":0.263512,"fit22":0.273411,"fit23":0.28331,"fit24":0.293208,"fit25":0.303107,"amp_code":"07","amphoe_e":"Bang Pahan","prov_code":14,"prov_nam_e":"Phra Nakhon Si Ayudhya","region":"C"}},{"type":"Feature","geometry":{"type":"Point","coordinates":[100.32109,14.30389]},"properties":{"case_name":"point_5","nbr00":0.381436,"nbr01":0.402636,"nbr02":0.37879,"nbr03":0.365922,"nbr04":0.368415,"nbr05":0.426259,"nbr06":0.289858,"nbr07":0.223356,"nbr08":0.380544,"nbr09":0.49221,"nbr10":0.507702,"nbr11":0.516184,"nbr12":0.282637,"nbr13":0.175988,"nbr14":0.176026,"nbr15":0.128636,"nbr16":0.310151,"nbr17":0.519434,"nbr18":0.398059,"nbr19":0.118242,"nbr20":0.220073,"nbr21":0.425093,"nbr22":0.418526,"nbr23":0.36628,"nbr24":0.407191,"nbr25":0.461256,"ndv00":0.517057,"ndv01":0.517253,"ndv02":0.504346,"ndv03":0.548773,"ndv04":0.559108,"ndv05":0.650785,"ndv06":0.403893,"ndv07":0.502841,"ndv08":0.594674,"ndv09":0.562398,"ndv10":0.607425,"ndv11":0.402138,"ndv12":0.493359,"ndv13":0.452473,"ndv14":0.478132,"ndv15":0.396437,"ndv16":0.479084,"ndv17":0.621581,"ndv18":0.576215,"ndv19":0.394875,"ndv20":0.390896,"ndv21":0.553269,"ndv22":0.599478,"ndv23":0.534203,"ndv24":0.548754,"ndv25":0.579456,"sar15":-16.753544,"sar16":-16.509047,"sar17":-14.708304,"sar18":-14.766417,"sar19":-18.188715,"sar20":-17.303246,"sar21":-15.247957,"sar22":-13.814839,"sar23":-14.234148,"sar24":-14.019694,"sar25":-13.752546,"duration":14.0,"dw_crop":0.051136,"dw_tree":0.136364,"lt_preval":0.566238,"mag":0.141194,"nbr_dsnr":3.663116,"nbr_dur":1.0,"nbr_mag":304.329926,"nbr_mag5":0.0,"nbr_post":160.932388,"nbr_prev":465.262329,"nbr_prv5":0.0,"nbr_rate":304.329926,"nbr_rat5":0.0,"nbr_yod":2013.0,"ndvi_rc5":0.532917,"ndvi_std":0.08166,"rmse":0.132723,"sar_dprv":0.746527,"sar_vh":-15.802146,"sar_vhrc":-15.561115,"seas_amp":0.231865,"slope":-0.087182,"tex_ent":4.265723,"tex_hom5":0.002141,"fit00":0.303484,"fit01":0.317122,"fit02":0.330759,"fit03":0.344397,"fit04":0.358035,"fit05":0.371673,"fit06":0.385311,"fit07":0.398949,"fit08":0.412586,"fit09":0.426224,"fit10":0.439862,"fit11":0.4535,"fit12":0.467138,"fit13":0.21947,"fit14":0.233121,"fit15":0.246772,"fit16":0.260424,"fit17":0.274075,"fit18":0.287726,"fit19":0.301378,"fit20":0.315029,"fit21":0.32868,"fit22":0.342332,"fit23":0.355983,"fit24":0.369634,"fit25":0.383286,"amp_code":"13","amphoe_e":"Bang Sai","prov_code":14,"prov_nam_e":"Phra Nakhon Si Ayudhya","region":"C"}},{"type":"Feature","geometry":{"type":"Point","coordinates":[100.70301,14.7808]},"properties":{"case_name":"point_6","nbr00":0.510201,"nbr01":0.045052,"nbr02":0.10203,"nbr03":0.219049,"nbr04":0.084822,"nbr05":0.000321,"nbr06":0.00742,"nbr07":0.129992,"nbr08":0.04959,"nbr09":0.169774,"nbr10":0.198486,"nbr11":0.095607,"nbr12":0.125492,"nbr13":0.410866,"nbr14":0.29325,"nbr15":0.199136,"nbr16":0.265488,"nbr17":0.383839,"nbr18":0.261862,"nbr19":0.214916,"nbr20":0.306877,"nbr21":0.31075,"nbr22":0.308221,"nbr23":0.309244,"nbr24":0.32128,"nbr25":0.211907,"ndv00":0.605535,"ndv01":0.212636,"ndv02":0.317348,"ndv03":0.292361,"ndv04":0.204265,"ndv05":0.280303,"ndv06":0.2598,"ndv07":0.232279,"ndv08":0.265381,"ndv09":0.355486,"ndv10":0.380356,"ndv11":0.340929,"ndv12":0.300161,"ndv13":0.319148,"ndv14":0.485429,"ndv15":0.424581,"ndv16":0.49262,"ndv17":0.587618,"ndv18":0.510512,"ndv19":0.402757,"ndv20":0.516602,"ndv21":0.556793,"ndv22":0.525143,"ndv23":0.529045,"ndv24":0.503625,"ndv25":0.456889,"sar15":-16.949094,"sar16":-15.288237,"sar17":-14.093585,"sar18":-15.867696,"sar19":-16.106376,"sar20":-13.970094,"sar21":-13.451216,"sar22":-14.045559,"sar23":-13.67027,"sar24":-14.272903,"sar25":-13.84757,"duration":12.0,"dw_crop":0.183784,"dw_tree":0.064865,"lt_preval":0.330219,"mag":-0.013624,"nbr_dsnr":0.0,"nbr_dur":0.0,"nbr_mag":0.0,"nbr_mag5":0.0,"nbr_post":0.0,"nbr_prev":0.0,"nbr_prv5":0.0,"nbr_rate":0.0,"nbr_rat5":0.0,"nbr_yod":1.0,"ndvi_rc5":0.539879,"ndvi_std":0.12075,"rmse":0.183544,"sar_dprv":0.877349,"sar_vh":-14.907193,"sar_vhrc":-14.479151,"seas_amp":0.283082,"slope":0.306725,"tex_ent":4.29873,"tex_hom5":0.0002,"fit00":null,"fit01":null,"fit02":null,"fit03":null,"fit04":null,"fit05":null,"fit06":null,"fit07":null,"fit08":null,"fit09":null,"fit10":null,"fit11":null,"fit12":null,"fit13":null,"fit14":null,"fit15":null,"fit16":null,"fit17":null,"fit18":null,"fit19":null,"fit20":null,"fit21":null,"fit22":null,"fit23":null,"fit24":null,"fit25":null,"amp_code":"01","amphoe_e":"Mueang Lopburi","prov_code":16,"prov_nam_e":"Lopburi","region":"C"}}]}